COSMOS 2425 (716)       
1 29670U 06062A   21353.93984181  .00000043  00000-0  00000-0 0  9992
2 29670  64.7981 249.1868 0024543 346.4105 271.8937  2.13111104116627
COSMOS 2433 (720)       
1 32275U 07052A   21354.36512374 -.00000046  00000-0  00000-0 0  9990
2 32275  66.0794  10.6146 0005225 249.9506 140.1711  2.13104138110156
COSMOS 2432 (719)       
1 32276U 07052B   21354.37033553 -.00000046  00000-0  00000-0 0  9999
2 32276  66.0938  10.7112 0010748 314.8165  28.0705  2.13103340110140
COSMOS 2434 (721)       
1 32393U 07065A   21353.87418887  .00000045  00000-0  00000-0 0  9992
2 32393  64.4179 247.5621 0002980  69.9589 192.4591  2.13103058108840
COSMOS 2436 (723)       
1 32395U 07065C   21354.11171088  .00000045  00000-0  00000-0 0  9991
2 32395  64.4264 247.6088 0016144   0.2370 220.3888  2.13102831108789
COSMOS 2456 (730)       
1 36111U 09070A   21354.13129247  .00000024  00000-0  00000-0 0  9998
2 36111  64.3120 127.2112 0001647 338.1856 289.5661  2.13099085 93510
COSMOS 2457 (733)       
1 36112U 09070B   21354.40734242  .00000026  00000-0  00000-0 0  9998
2 36112  64.2955 127.0823 0006748 151.3497  94.0443  2.13101301 93529
COSMOS 2459 (731)       
1 36400U 10007A   21353.99646541 -.00000047  00000-0  00000-0 0  9991
2 36400  65.9722   9.5265 0025952 345.1371 343.3046  2.13112611 91854
COSMOS 2461 (735)       
1 36401U 10007B   21354.47041369 -.00000046  00000-0  00000-0 0  9992
2 36401  65.9684   9.4745 0018980 359.9302 328.5781  2.13103583 91875
COSMOS 2460 (732)       
1 36402U 10007C   21354.53869466 -.00000046  00000-0  00000-0 0  9996
2 36402  65.9547   9.4261 0002397 250.6943  76.9014  2.13106382 91873
COSMOS 2464 (736)       
1 37139U 10041C   21354.42619045  .00000046  00000-0  00000-0 0  9995
2 37139  64.0168 246.7081 0029447  10.3660 175.0830  2.13100777 87939
COSMOS 2471 (701K)      
1 37372U 11009A   21354.52756918 -.00000046  00000-0  00000-0 0  9992
2 37372  65.9491   9.3544 0017671 232.7801 205.8387  2.13063184 84157
COSMOS 2476 (744)       
1 37867U 11064A   21354.26506655  .00000027  00000-0  00000-0 0  9992
2 37867  64.6042 128.4931 0020048 230.9444  43.3608  2.13101724 78867
COSMOS 2477 (745)       
1 37868U 11064B   21354.00142824  .00000025  00000-0  00000-0 0  9997
2 37868  64.6117 128.5647 0017297 230.8489  19.4380  2.13101598 78811
COSMOS 2475 (743)       
1 37869U 11064C   21354.53807001  .00000030  00000-0  00000-0 0  9997
2 37869  64.6193 128.5531 0020635 252.5049   7.3537  2.13101789 78835
COSMOS 2485 (747)       
1 39155U 13019A   21354.25789144  .00000028  00000-0  00000-0 0  9992
2 39155  64.7690 128.8827 0020499 226.7439  86.5134  2.13101758 67334
COSMOS 2492 (754)       
1 39620U 14012A   21354.51205197 -.00000047  00000-0  00000-0 0  9995
2 39620  65.8418   9.1329 0013993 313.5874 229.2646  2.13103171 60291
COSMOS 2500 (755)       
1 40001U 14032A   21354.40269355 -.00000047  00000-0  00000-0 0  9996
2 40001  65.7825   9.0117 0008029 216.7595 101.3273  2.13102267 58501
COSMOS 2501 (702K)      
1 40315U 14075A   21354.46398591  .00000044  00000-0  00000-0 0  9998
2 40315  63.7266 247.4432 0016827 210.1757 322.0870  2.13101229 54910
COSMOS 2514 (751)       
1 41330U 16008A   21354.43520218 -.00000048  00000-0  00000-0 0  9999
2 41330  65.5836   8.7448 0011981 221.2574 305.2699  2.13102732 45677
COSMOS 2516 (753)       
1 41554U 16032A   21354.34562984  .00000044  00000-0  00000-0 0  9995
2 41554  63.9519 247.6733 0012956 219.0456 138.0261  2.13106111 43279
COSMOS 2522 (752)       
1 42939U 17055A   21353.40860323  .00000043  00000-0  00000-0 0  9992
2 42939  64.1861 248.0483 0006948 250.8662 326.9854  2.13102020 33015
COSMOS 2527 (756)       
1 43508U 18053A   21354.34043668  .00000028  00000-0  00000-0 0  9996
2 43508  64.9324 128.8426 0007195 213.7466  31.0938  2.13102462 27321
COSMOS 2529 (757)       
1 43687U 18086A   21354.35540782  .00000044  00000-0  00000-0 0  9998
2 43687  64.4002 248.2840 0009389 274.0170 265.7239  2.13102096 24345
COSMOS 2534 (758)       
1 44299U 19030A   21354.18074082  .00000044  00000-0  00000-0 0  9994
2 44299  64.4722 248.1572 0012532 293.1357 247.2978  2.13101836 19988
COSMOS 2544 (759)       
1 44850U 19088A   21354.43364267  .00000029  00000-0  00000-0 0  9998
2 44850  64.9177 128.6957 0010306 253.4643 106.4803  2.13102254 15763
COSMOS 2545 (760)       
1 45358U 20018A   21352.71134218 -.00000052  00000-0  00000-0 0  9994
2 45358  64.9189   9.5594 0011457 250.9707  77.4343  2.13102740 13679
